[{"OBJECT_NAME":"KX-09","OBJECT_ID":"2019-058B","EPOCH":"2026-03-09T23:04:56.318016","MEAN_MOTION":14.96388453,"ECCENTRICITY":0.00095225,"INCLINATION":97.7825,"RA_OF_ASC_NODE":82.8152,"ARG_OF_PERICENTER":321.3855,"MEAN_ANOMALY":38.6684,"EPHEMERIS_TYPE":0,"CLASSIFICATION_TYPE":"U","NORAD_CAT_ID":44520,"ELEMENT_SET_NO":999,"REV_AT_EPOCH":35519,"BSTAR":0.00022385026,"MEAN_MOTION_DOT":2.479e-5,"MEAN_MOTION_DDOT":0},{"OBJECT_NAME":"SL-8 R\/B","OBJECT_ID":"1968-040B","EPOCH":"2026-03-09T18:37:46.369632","MEAN_MOTION":15.03260494,"ECCENTRICITY":0.00239141,"INCLINATION":74.0322,"RA_OF_ASC_NODE":313.5182,"ARG_OF_PERICENTER":137.361,"MEAN_ANOMALY":222.9441,"EPHEMERIS_TYPE":0,"CLASSIFICATION_TYPE":"U","NORAD_CAT_ID":3230,"ELEMENT_SET_NO":999,"REV_AT_EPOCH":9002,"BSTAR":0.00025747843,"MEAN_MOTION_DOT":3.469e-5,"MEAN_MOTION_DDOT":0}]
